GLOBALSTAR M024 [-]     
1 25883U 99043A   23349.87279789 -.00000132  00000+0 -23878-2 0  9996
2 25883  51.9979 180.0511 0000188 328.5464 137.9031 11.10158214 53852
GLOBALSTAR M027 [-]     
1 25884U 99043B   23349.90338152 -.00000018  00000+0  17317-2 0  9994
2 25884  52.0198 242.4083 0020732 182.2436 177.8266 11.04366987 80557
GLOBALSTAR M053 [-]     
1 25886U 99043D   23349.41263778 -.00000063  00000+0  17696-3 0  9994
2 25886  52.0012  19.6531 0003428 225.1955 237.8291 11.27652409 57429
GLOBALSTAR M058 [-]     
1 25907U 99049A   23349.68458789 -.00000082  00000+0  35437-4 0  9996
2 25907  51.9917 136.4522 0001457 296.9531  63.1155 11.93171506475946
GLOBALSTAR M050 [-]     
1 25908U 99049B   23349.88418602 -.00000020  00000+0  76505-3 0  9991
2 25908  51.9957 184.6342 0009510  25.1898  80.7039 12.07425561 81838
GLOBALSTAR M033 [-]     
1 25909U 99049C   23349.56822899 -.00000079  00000+0  12541-3 0  9998
2 25909  51.9914  95.2946 0011438 218.5774 141.4256 12.20260975468647
GLOBALSTAR M055 [-]     
1 25910U 99049D   23349.57629149 -.00000092  00000+0  20568-4 0  9998
2 25910  51.9998 132.7645 0007912  75.9890 284.1841 12.29392280100901
